STARLINK-31256          
1 59161U 24044K   26068.78465645  .00000333  00000+0  21629-4 0  9995
2 59161  43.0000 106.1864 0001030 276.2359  83.8375 15.27568251113613
STARLINK-36554          
1 67502U 26012K   26067.71268370  .00032833  00000+0  11969-2 0  9992
2 67502  42.9934 319.8184 0000695 339.2059  20.8765 15.27591469  7619
